STARLINK-3173           
1 51111U 22005H   26128.95543597  .00005539  00000+0  36597-3 0  9998
2 51111  53.2185  18.5765 0001573  89.3189 270.7983 15.08825694237973
STARLINK-3374           
1 51112U 22005J   26129.10727108  .00001691  00000+0  12432-3 0  9996
2 51112  53.2186  17.8660 0001450 106.2059 253.9093 15.08843373238004
STARLINK-3372           
1 51113U 22005K   26128.96649382 -.00002245  00000+0 -12308-3 0  9997
2 51113  53.2181  18.5279 0001315  88.3526 271.7616 15.08816507237976
STARLINK-3375           
1 51114U 22005L   26128.98487424  .00002012  00000+0  14451-3 0  9998
2 51114  53.2201  18.4451 0001405  95.7797 264.3355 15.08828022237987
STARLINK-3397           
1 51115U 22005M   26128.95911006  .00000140  00000+0  26895-4 0  9990
2 51115  53.2184  18.5601 0001353  89.2626 270.8521 15.08839683237978
STARLINK-3243           
1 51116U 22005N   26128.97110274  .00001338  00000+0  10215-3 0  9999
2 51116  53.2187  18.4794 0001802  94.1651 265.9547 15.08839673237978
STARLINK-3391           
1 51117U 22005P   26128.99958135  .00002146  00000+0  15288-3 0  9991
2 51117  53.2189  18.2698 0001311  85.7027 274.4114 15.08839173237981
STARLINK-3394           
1 51118U 22005Q   26128.96278696  .00001459  00000+0  10974-3 0  9999
2 51118  53.2181  18.5450 0001384  87.6645 272.4506 15.08842534237977
STARLINK-3398           
1 51120U 22005S   26129.00055002  .00001936  00000+0  13972-3 0  9993
2 51120  53.2190  18.3861 0001293  96.9007 263.2132 15.08838509237989
STARLINK-3399           
1 51121U 22005T   26129.01526801  .00001720  00000+0  12610-3 0  9994
2 51121  53.2185  18.3187 0001331  88.4751 271.6393 15.08841921237984
STARLINK-3392           
1 51123U 22005V   26128.99591278  .00001389  00000+0  10533-3 0  9995
2 51123  53.2194  18.3964 0001365 103.1896 256.9248 15.08837545237983
STARLINK-3389           
1 51124U 22005W   26129.03915123  .00001472  00000+0  11055-3 0  9994
2 51124  53.2183  28.2019 0001573  87.7438 272.3734 15.08840152237859
STARLINK-3387           
1 51125U 22005X   26129.02908382 -.00000116  00000+0  10781-4 0  9994
2 51125  53.2173  28.2546 0001169  68.8398 291.2719 15.08838777237831
STARLINK-3386           
1 51126U 22005Y   26129.03643397  .00002217  00000+0  15727-3 0  9995
2 51126  53.2183  28.2246 0001221  98.0353 262.0777 15.08853253237853
STARLINK-3370           
1 51127U 22005Z   26129.03275163  .00001143  00000+0  89929-4 0  9991
2 51127  53.2186  28.2414 0001589  93.9042 266.2132 15.08838523237843
STARLINK-3400           
1 51128U 22005AA  26129.01339198  .00001027  00000+0  82609-4 0  9998
2 51128  53.2201  28.3199 0001304  96.0597 264.0544 15.08834936237833
STARLINK-3396           
1 51129U 22005AB  26129.10635763  .00001733  00000+0  12695-3 0  9997
2 51129  53.2182  27.9003 0001343  88.8035 271.3111 15.08831261237851
STARLINK-3395           
1 51130U 22005AC  26129.02442491  .00001697  00000+0  12468-3 0  9991
2 51130  53.2181  28.2685 0001261  92.7825 267.3312 15.08843863237839
STARLINK-3388           
1 51131U 22005AD  26129.01707084  .00000484  00000+0  48532-4 0  9998
2 51131  53.2191  28.3018 0001395  98.5410 261.5741 15.08837337237835
STARLINK-3393           
1 51132U 22005AE  26129.02075402  .00000343  00000+0  39639-4 0  9994
2 51132  53.2195  28.2866 0001383  98.0635 262.0514 15.08832672237832
STARLINK-3356           
1 51133U 22005AF  26129.00970826  .00000842  00000+0  71016-4 0  9996
2 51133  53.2186  28.3330 0001340  86.0806 274.0340 15.08839446237836
STARLINK-3363           
1 51135U 22005AH  26128.92969463  .00000831  00000+0  70322-4 0  9990
2 51135  53.2195  28.5869 0001554  89.5653 270.5517 15.08840373237829
STARLINK-3253           
1 51136U 22005AJ  26129.18631870  .00002060  00000+0  14744-3 0  9999
2 51136  53.2179  27.3377 0001351  94.0125 266.1021 15.08846688237863
STARLINK-3180           
1 51137U 22005AK  26128.99498846  .00002602  00000+0  18151-3 0  9990
2 51137  53.2188  28.3977 0001389  85.0780 275.0371 15.08844003237843
STARLINK-3177           
1 51138U 22005AL  26129.00234409  .00002345  00000+0  16533-3 0  9993
2 51138  53.2192  28.3648 0001445  84.8239 275.2918 15.08845231237835
STARLINK-3172           
1 51139U 22005AM  26128.98858334  .00002397  00000+0  16862-3 0  9991
2 51139  53.2179  28.4376 0001330  83.6570 276.4573 15.08844310237846
STARLINK-3175           
1 51140U 22005AN  26129.13209581  .00002868  00000+0  19816-3 0  9990
2 51140  53.2191  27.7921 0001514  87.3359 272.7807 15.08853621237866
STARLINK-3179           
1 51141U 22005AP  26128.98026859  .00001204  00000+0  93727-4 0  9995
2 51141  53.2171  28.4653 0001404  83.6359 276.4793 15.08844409237849
STARLINK-3369           
1 51142U 22005AQ  26128.92688080  .00034953  00000+0  14819-2 0  9990
2 51142  53.2201   6.3147 0006143  75.7906 284.3775 15.22817533238148
STARLINK-3184           
1 51143U 22005AR  26129.03087411  .00001927  00000+0  13911-3 0  9993
2 51143  53.2176  38.2374 0001281  88.6000 271.5139 15.08838994237703
