OBJECT_NAME,OBJECT_ID,EPOCH,MEAN_MOTION,ECCENTRICITY,INCLINATION,RA_OF_ASC_NODE,ARG_OF_PERICENTER,MEAN_ANOMALY,EPHEMERIS_TYPE,CLASSIFICATION_TYPE,NORAD_CAT_ID,ELEMENT_SET_NO,REV_AT_EPOCH,BSTAR,MEAN_MOTION_DOT,MEAN_MOTION_DDOT
STARLINK-3173,2022-005H,2026-05-08T22:55:49.667808,15.08825694,.0001573,53.2185,18.5765,89.3189,270.7983,0,U,51111,999,23797,.36597E-3,.5539E-4,0
STARLINK-3374,2022-005J,2026-05-09T02:34:28.221312,15.08843373,.000145,53.2186,17.8660,106.2059,253.9093,0,U,51112,999,23800,.12432E-3,.1691E-4,0
STARLINK-3372,2022-005K,2026-05-08T23:11:45.066048,15.08816507,.0001315,53.2181,18.5279,88.3526,271.7616,0,U,51113,999,23797,-.12308E-3,-.2245E-4,0
STARLINK-3375,2022-005L,2026-05-08T23:38:13.134336,15.08828022,.0001405,53.2201,18.4451,95.7797,264.3355,0,U,51114,999,23798,.14451E-3,.2012E-4,0
STARLINK-3397,2022-005M,2026-05-08T23:01:07.109184,15.08839683,.0001353,53.2184,18.5601,89.2626,270.8521,0,U,51115,999,23797,.26895E-4,.14E-5,0
STARLINK-3243,2022-005N,2026-05-08T23:18:23.276736,15.08839673,.0001802,53.2187,18.4794,94.1651,265.9547,0,U,51116,999,23797,.10215E-3,.1338E-4,0
STARLINK-3391,2022-005P,2026-05-08T23:59:23.828640,15.08839173,.0001311,53.2189,18.2698,85.7027,274.4114,0,U,51117,999,23798,.15288E-3,.2146E-4,0
STARLINK-3394,2022-005Q,2026-05-08T23:06:24.793344,15.08842534,.0001384,53.2181,18.5450,87.6645,272.4506,0,U,51118,999,23797,.10974E-3,.1459E-4,0
STARLINK-3398,2022-005S,2026-05-09T00:00:47.521728,15.08838509,.0001293,53.2190,18.3861,96.9007,263.2132,0,U,51120,999,23798,.13972E-3,.1936E-4,0
STARLINK-3399,2022-005T,2026-05-09T00:21:59.156064,15.08841921,.0001331,53.2185,18.3187,88.4751,271.6393,0,U,51121,999,23798,.1261E-3,.172E-4,0
STARLINK-3392,2022-005V,2026-05-08T23:54:06.864192,15.08837545,.0001365,53.2194,18.3964,103.1896,256.9248,0,U,51123,999,23798,.10533E-3,.1389E-4,0
STARLINK-3389,2022-005W,2026-05-09T00:56:22.666272,15.08840152,.0001573,53.2183,28.2019,87.7438,272.3734,0,U,51124,999,23785,.11055E-3,.1472E-4,0
STARLINK-3387,2022-005X,2026-05-09T00:41:52.842048,15.08838777,.0001169,53.2173,28.2546,68.8398,291.2719,0,U,51125,999,23783,.10781E-4,-.116E-5,0
STARLINK-3386,2022-005Y,2026-05-09T00:52:27.895008,15.08853253,.0001221,53.2183,28.2246,98.0353,262.0777,0,U,51126,999,23785,.15727E-3,.2217E-4,0
STARLINK-3370,2022-005Z,2026-05-09T00:47:09.740832,15.08838523,.0001589,53.2186,28.2414,93.9042,266.2132,0,U,51127,999,23784,.89929E-4,.1143E-4,0
STARLINK-3400,2022-005AA,2026-05-09T00:19:17.067072,15.08834936,.0001304,53.2201,28.3199,96.0597,264.0544,0,U,51128,999,23783,.82609E-4,.1027E-4,0
STARLINK-3396,2022-005AB,2026-05-09T02:33:09.299232,15.08831261,.0001343,53.2182,27.9003,88.8035,271.3111,0,U,51129,999,23785,.12695E-3,.1733E-4,0
STARLINK-3395,2022-005AC,2026-05-09T00:35:10.312224,15.08843863,.0001261,53.2181,28.2685,92.7825,267.3312,0,U,51130,999,23783,.12468E-3,.1697E-4,0
STARLINK-3388,2022-005AD,2026-05-09T00:24:34.920576,15.08837337,.0001395,53.2191,28.3018,98.5410,261.5741,0,U,51131,999,23783,.48532E-4,.484E-5,0
STARLINK-3393,2022-005AE,2026-05-09T00:29:53.147328,15.08832672,.0001383,53.2195,28.2866,98.0635,262.0514,0,U,51132,999,23783,.39639E-4,.343E-5,0
STARLINK-3356,2022-005AF,2026-05-09T00:13:58.793664,15.08839446,.000134,53.2186,28.3330,86.0806,274.0340,0,U,51133,999,23783,.71016E-4,.842E-5,0
STARLINK-3363,2022-005AH,2026-05-08T22:18:45.616032,15.08840373,.0001554,53.2195,28.5869,89.5653,270.5517,0,U,51135,999,23782,.70322E-4,.831E-5,0
STARLINK-3253,2022-005AJ,2026-05-09T04:28:17.935680,15.08846688,.0001351,53.2179,27.3377,94.0125,266.1021,0,U,51136,999,23786,.14744E-3,.206E-4,0
STARLINK-3180,2022-005AK,2026-05-08T23:52:47.002944,15.08844003,.0001389,53.2188,28.3977,85.0780,275.0371,0,U,51137,999,23784,.18151E-3,.2602E-4,0
STARLINK-3177,2022-005AL,2026-05-09T00:03:22.529376,15.08845231,.0001445,53.2192,28.3648,84.8239,275.2918,0,U,51138,999,23783,.16533E-3,.2345E-4,0
STARLINK-3172,2022-005AM,2026-05-08T23:43:33.600576,15.08844310,.000133,53.2179,28.4376,83.6570,276.4573,0,U,51139,999,23784,.16862E-3,.2397E-4,0
STARLINK-3175,2022-005AN,2026-05-09T03:10:13.077984,15.08853621,.0001514,53.2191,27.7921,87.3359,272.7807,0,U,51140,999,23786,.19816E-3,.2868E-4,0
STARLINK-3179,2022-005AP,2026-05-08T23:31:35.206176,15.08844409,.0001404,53.2171,28.4653,83.6359,276.4793,0,U,51141,999,23784,.93727E-4,.1204E-4,0
STARLINK-3369,2022-005AQ,2026-05-08T22:14:42.501120,15.22817533,.0006143,53.2201,6.3147,75.7906,284.3775,0,U,51142,999,23814,.14819E-2,.34953E-3,0
STARLINK-3184,2022-005AR,2026-05-09T00:44:27.523104,15.08838994,.0001281,53.2176,38.2374,88.6000,271.5139,0,U,51143,999,23770,.13911E-3,.1927E-4,0
